[{"OBJECT_NAME":"STARLINK-5315","OBJECT_ID":"2023-010AS","EPOCH":"2026-03-09T22:36:43.285824","MEAN_MOTION":14.98324735,"ECCENTRICITY":0.00026267,"INCLINATION":70.0021,"RA_OF_ASC_NODE":3.6806,"ARG_OF_PERICENTER":265.4453,"MEAN_ANOMALY":94.6406,"EPHEMERIS_TYPE":0,"CLASSIFICATION_TYPE":"U","NORAD_CAT_ID":55309,"ELEMENT_SET_NO":999,"REV_AT_EPOCH":17381,"BSTAR":-4.8305114e-5,"MEAN_MOTION_DOT":-6.69e-6,"MEAN_MOTION_DDOT":0},{"OBJECT_NAME":"DOVE 3","OBJECT_ID":"2013-066P","EPOCH":"2026-03-09T13:43:10.410528","MEAN_MOTION":14.75674186,"ECCENTRICITY":0.0114756,"INCLINATION":97.6762,"RA_OF_ASC_NODE":293.4727,"ARG_OF_PERICENTER":348.5904,"MEAN_ANOMALY":11.2708,"EPHEMERIS_TYPE":0,"CLASSIFICATION_TYPE":"U","NORAD_CAT_ID":39429,"ELEMENT_SET_NO":999,"REV_AT_EPOCH":65631,"BSTAR":0.00054674,"MEAN_MOTION_DOT":4.106e-5,"MEAN_MOTION_DDOT":0}]
